IRIDIUM 921             
1 24873U 97034E   24118.88499602  .00038308  00000+0  10914-2 0  9997
2 24873  86.3795 312.9675 0005642  87.9778 272.2120 15.35915243467450
IRIDIUM 26              
1 24903U 97043A   24118.89175933  .00001246  00000+0  41997-3 0  9997
2 24903  86.3909 284.8696 0002225  86.5245 273.6206 14.36312909397114
IRIDIUM 22              
1 24907U 97043E   24118.90854125  .00001170  00000+0  40263-3 0  9991
2 24907  86.3912 288.0622 0002109  92.2475 267.8963 14.35203472397193
DUMMY MASS 1            
1 24925U 97048A   24118.83019768  .00000944  00000+0  10445-3 0  9991
2 24925  86.3331 327.2726 0007256 159.3888 200.7631 14.86161088443428
DUMMY MASS 2            
1 24926U 97048B   24118.85863874  .00000933  00000+0  10379-3 0  9993
2 24926  86.3333 328.7936 0007574 171.5189 188.6164 14.85919996443213
IRIDIUM 29              
1 24944U 97051A   24118.92712175  .00000925  00000+0  31421-3 0  9994
2 24944  86.3928 317.9916 0002176  95.7581 264.3863 14.35656076393671
IRIDIUM 33              
1 24946U 97051C   24118.90695886  .00000660  00000+0  22797-3 0  9995
2 24946  86.3842 317.2549 0007993   9.5372 350.5974 14.34327651393209
IRIDIUM 28              
1 24948U 97051E   24118.82500209  .00000946  00000+0  31517-3 0  9999
2 24948  86.3930 315.7871 0002258  78.4579 281.6871 14.36605513394190
